STARLINK-36483          
1 67330U 26002AB  26022.00002315  .00143047  00000+0  92249-3 0  9999
2 67330  42.9989 232.9655 0001438 272.9297  37.1141 15.74942688  4070
STARLINK-36494          
1 67331U 26002AC  26022.00002315  .00184554  00000+0  11818-2 0  9990
2 67331  42.9990 232.9807 0001539 260.4408  43.8118 15.74973791  4077
STARLINK-36492          
1 67332U 26002AD  26022.00002315  .00165570  00000+0  10634-2 0  9993
2 67332  42.9989 232.9702 0001531 281.7136  26.3947 15.74964676  4074
STARLINK-36427          
1 67333U 26002AE  26022.50002314 -.01964207  00000+0 -19431-1 0  9998
2 67333  42.9990 229.3392 0001443 264.2347 236.9337 15.68091834  4054
STARLINK-35343          
1 67334U 26003A   26022.50002314 -.01539781  00000+0 -10001-1 0  9999
2 67334  42.9985 133.2531 0001184 283.9068 263.5469 15.78047032  3184
STARLINK-36486          
1 67335U 26003B   26022.50002314 -.01550530  00000+0 -10079-1 0  9990
2 67335  42.9985 133.2483 0001312 279.6561 269.7409 15.78048267  3244
STARLINK-36480          
1 67336U 26003C   26022.50002314 -.01554367  00000+0 -10137-1 0  9998
2 67336  42.9985 133.2431 0001399 275.4698 276.0692 15.77983141  3241
STARLINK-36410          
1 67337U 26003D   26022.50002314 -.01567877  00000+0 -10266-1 0  9992
2 67337  42.9985 133.2374 0001287 279.9878 273.6853 15.77924935  3241
STARLINK-36413          
1 67338U 26003E   26022.50002314 -.01580598  00000+0 -10381-1 0  9996
2 67338  42.9986 133.2322 0001198 281.6484 274.0932 15.77886114  3249
STARLINK-36451          
1 67339U 26003F   26022.50002314 -.01577970  00000+0 -10390-1 0  9997
2 67339  42.9986 133.2267 0001119 278.1007 279.7400 15.77825554  3246
STARLINK-36339          
1 67340U 26003G   26022.50002314 -.01600078  00000+0 -10600-1 0  9999
2 67340  42.9985 133.2216 0001092 279.8763 280.1850 15.77737182  3242
STARLINK-36453          
1 67341U 26003H   26022.50002314 -.01637050  00000+0 -10683-1 0  9991
2 67341  42.9986 133.2155 0000951 282.5988 279.6498 15.77645278  3244
