CCSDS_OMM_VERS = 2.0
CREATION_DATE  = 
ORIGINATOR     = 

OBJECT_NAME    = STARLINK-36483
OBJECT_ID      = 2026-002AB
CENTER_NAME    = EARTH
REF_FRAME      = TEME
TIME_SYSTEM    = UTC
MEAN_ELEMENT_THEORY = SGP/SGP4

EPOCH          = 2026-01-22T00:00:02.000160
MEAN_MOTION    = 15.74942688
ECCENTRICITY   = .00014386
INCLINATION    = 42.9989
RA_OF_ASC_NODE = 232.9655
ARG_OF_PERICENTER = 272.9297
MEAN_ANOMALY   = 37.1141

EPHEMERIS_TYPE = 0
CLASSIFICATION_TYPE = U
NORAD_CAT_ID   = 67330
ELEMENT_SET_NO = 999
REV_AT_EPOCH   = 407
BSTAR          = .92249133E-3
MEAN_MOTION_DOT = .143047E-2
MEAN_MOTION_DDOT = 0

CCSDS_OMM_VERS = 2.0
CREATION_DATE  = 
ORIGINATOR     = 

OBJECT_NAME    = STARLINK-36494
OBJECT_ID      = 2026-002AC
CENTER_NAME    = EARTH
REF_FRAME      = TEME
TIME_SYSTEM    = UTC
MEAN_ELEMENT_THEORY = SGP/SGP4

EPOCH          = 2026-01-22T00:00:02.000160
MEAN_MOTION    = 15.74973791
ECCENTRICITY   = .00015391
INCLINATION    = 42.9990
RA_OF_ASC_NODE = 232.9807
ARG_OF_PERICENTER = 260.4408
MEAN_ANOMALY   = 43.8118

EPHEMERIS_TYPE = 0
CLASSIFICATION_TYPE = U
NORAD_CAT_ID   = 67331
ELEMENT_SET_NO = 999
REV_AT_EPOCH   = 407
BSTAR          = .1181789E-2
MEAN_MOTION_DOT = .184554E-2
MEAN_MOTION_DDOT = 0

CCSDS_OMM_VERS = 2.0
CREATION_DATE  = 
ORIGINATOR     = 

OBJECT_NAME    = STARLINK-36492
OBJECT_ID      = 2026-002AD
CENTER_NAME    = EARTH
REF_FRAME      = TEME
TIME_SYSTEM    = UTC
MEAN_ELEMENT_THEORY = SGP/SGP4

EPOCH          = 2026-01-22T00:00:02.000160
MEAN_MOTION    = 15.74964676
ECCENTRICITY   = .00015314
INCLINATION    = 42.9989
RA_OF_ASC_NODE = 232.9702
ARG_OF_PERICENTER = 281.7136
MEAN_ANOMALY   = 26.3947

EPHEMERIS_TYPE = 0
CLASSIFICATION_TYPE = U
NORAD_CAT_ID   = 67332
ELEMENT_SET_NO = 999
REV_AT_EPOCH   = 407
BSTAR          = .10633664E-2
MEAN_MOTION_DOT = .16557E-2
MEAN_MOTION_DDOT = 0

CCSDS_OMM_VERS = 2.0
CREATION_DATE  = 
ORIGINATOR     = 

OBJECT_NAME    = STARLINK-36427
OBJECT_ID      = 2026-002AE
CENTER_NAME    = EARTH
REF_FRAME      = TEME
TIME_SYSTEM    = UTC
MEAN_ELEMENT_THEORY = SGP/SGP4

EPOCH          = 2026-01-22T12:00:01.999296
MEAN_MOTION    = 15.68091834
ECCENTRICITY   = .0001443
INCLINATION    = 42.9990
RA_OF_ASC_NODE = 229.3392
ARG_OF_PERICENTER = 264.2347
MEAN_ANOMALY   = 236.9337

EPHEMERIS_TYPE = 0
CLASSIFICATION_TYPE = U
NORAD_CAT_ID   = 67333
ELEMENT_SET_NO = 999
REV_AT_EPOCH   = 405
BSTAR          = -.19431E-1
MEAN_MOTION_DOT = -.1964207E-1
MEAN_MOTION_DDOT = 0

CCSDS_OMM_VERS = 2.0
CREATION_DATE  = 
ORIGINATOR     = 

OBJECT_NAME    = STARLINK-35343
OBJECT_ID      = 2026-003A
CENTER_NAME    = EARTH
REF_FRAME      = TEME
TIME_SYSTEM    = UTC
MEAN_ELEMENT_THEORY = SGP/SGP4

EPOCH          = 2026-01-22T12:00:01.999296
MEAN_MOTION    = 15.78047032
ECCENTRICITY   = .0001184
INCLINATION    = 42.9985
RA_OF_ASC_NODE = 133.2531
ARG_OF_PERICENTER = 283.9068
MEAN_ANOMALY   = 263.5469

EPHEMERIS_TYPE = 0
CLASSIFICATION_TYPE = U
NORAD_CAT_ID   = 67334
ELEMENT_SET_NO = 999
REV_AT_EPOCH   = 318
BSTAR          = -.10001E-1
MEAN_MOTION_DOT = -.1539781E-1
MEAN_MOTION_DDOT = 0

CCSDS_OMM_VERS = 2.0
CREATION_DATE  = 
ORIGINATOR     = 

OBJECT_NAME    = STARLINK-36486
OBJECT_ID      = 2026-003B
CENTER_NAME    = EARTH
REF_FRAME      = TEME
TIME_SYSTEM    = UTC
MEAN_ELEMENT_THEORY = SGP/SGP4

EPOCH          = 2026-01-22T12:00:01.999296
MEAN_MOTION    = 15.78048267
ECCENTRICITY   = .0001312
INCLINATION    = 42.9985
RA_OF_ASC_NODE = 133.2483
ARG_OF_PERICENTER = 279.6561
MEAN_ANOMALY   = 269.7409

EPHEMERIS_TYPE = 0
CLASSIFICATION_TYPE = U
NORAD_CAT_ID   = 67335
ELEMENT_SET_NO = 999
REV_AT_EPOCH   = 324
BSTAR          = -.10079E-1
MEAN_MOTION_DOT = -.155053E-1
MEAN_MOTION_DDOT = 0

CCSDS_OMM_VERS = 2.0
CREATION_DATE  = 
ORIGINATOR     = 

OBJECT_NAME    = STARLINK-36480
OBJECT_ID      = 2026-003C
CENTER_NAME    = EARTH
REF_FRAME      = TEME
TIME_SYSTEM    = UTC
MEAN_ELEMENT_THEORY = SGP/SGP4

EPOCH          = 2026-01-22T12:00:01.999296
MEAN_MOTION    = 15.77983141
ECCENTRICITY   = .0001399
INCLINATION    = 42.9985
RA_OF_ASC_NODE = 133.2431
ARG_OF_PERICENTER = 275.4698
MEAN_ANOMALY   = 276.0692

EPHEMERIS_TYPE = 0
CLASSIFICATION_TYPE = U
NORAD_CAT_ID   = 67336
ELEMENT_SET_NO = 999
REV_AT_EPOCH   = 324
BSTAR          = -.10137E-1
MEAN_MOTION_DOT = -.1554367E-1
MEAN_MOTION_DDOT = 0

CCSDS_OMM_VERS = 2.0
CREATION_DATE  = 
ORIGINATOR     = 

OBJECT_NAME    = STARLINK-36410
OBJECT_ID      = 2026-003D
CENTER_NAME    = EARTH
REF_FRAME      = TEME
TIME_SYSTEM    = UTC
MEAN_ELEMENT_THEORY = SGP/SGP4

EPOCH          = 2026-01-22T12:00:01.999296
MEAN_MOTION    = 15.77924935
ECCENTRICITY   = .0001287
INCLINATION    = 42.9985
RA_OF_ASC_NODE = 133.2374
ARG_OF_PERICENTER = 279.9878
MEAN_ANOMALY   = 273.6853

EPHEMERIS_TYPE = 0
CLASSIFICATION_TYPE = U
NORAD_CAT_ID   = 67337
ELEMENT_SET_NO = 999
REV_AT_EPOCH   = 324
BSTAR          = -.10266E-1
MEAN_MOTION_DOT = -.1567877E-1
MEAN_MOTION_DDOT = 0

CCSDS_OMM_VERS = 2.0
CREATION_DATE  = 
ORIGINATOR     = 

OBJECT_NAME    = STARLINK-36413
OBJECT_ID      = 2026-003E
CENTER_NAME    = EARTH
REF_FRAME      = TEME
TIME_SYSTEM    = UTC
MEAN_ELEMENT_THEORY = SGP/SGP4

EPOCH          = 2026-01-22T12:00:01.999296
MEAN_MOTION    = 15.77886114
ECCENTRICITY   = .0001198
INCLINATION    = 42.9986
RA_OF_ASC_NODE = 133.2322
ARG_OF_PERICENTER = 281.6484
MEAN_ANOMALY   = 274.0932

EPHEMERIS_TYPE = 0
CLASSIFICATION_TYPE = U
NORAD_CAT_ID   = 67338
ELEMENT_SET_NO = 999
REV_AT_EPOCH   = 324
BSTAR          = -.10381E-1
MEAN_MOTION_DOT = -.1580598E-1
MEAN_MOTION_DDOT = 0

CCSDS_OMM_VERS = 2.0
CREATION_DATE  = 
ORIGINATOR     = 

OBJECT_NAME    = STARLINK-36451
OBJECT_ID      = 2026-003F
CENTER_NAME    = EARTH
REF_FRAME      = TEME
TIME_SYSTEM    = UTC
MEAN_ELEMENT_THEORY = SGP/SGP4

EPOCH          = 2026-01-22T12:00:01.999296
MEAN_MOTION    = 15.77825554
ECCENTRICITY   = .0001119
INCLINATION    = 42.9986
RA_OF_ASC_NODE = 133.2267
ARG_OF_PERICENTER = 278.1007
MEAN_ANOMALY   = 279.7400

EPHEMERIS_TYPE = 0
CLASSIFICATION_TYPE = U
NORAD_CAT_ID   = 67339
ELEMENT_SET_NO = 999
REV_AT_EPOCH   = 324
BSTAR          = -.1039E-1
MEAN_MOTION_DOT = -.157797E-1
MEAN_MOTION_DDOT = 0

CCSDS_OMM_VERS = 2.0
CREATION_DATE  = 
ORIGINATOR     = 

OBJECT_NAME    = STARLINK-36339
OBJECT_ID      = 2026-003G
CENTER_NAME    = EARTH
REF_FRAME      = TEME
TIME_SYSTEM    = UTC
MEAN_ELEMENT_THEORY = SGP/SGP4

EPOCH          = 2026-01-22T12:00:01.999296
MEAN_MOTION    = 15.77737182
ECCENTRICITY   = .0001092
INCLINATION    = 42.9985
RA_OF_ASC_NODE = 133.2216
ARG_OF_PERICENTER = 279.8763
MEAN_ANOMALY   = 280.1850

EPHEMERIS_TYPE = 0
CLASSIFICATION_TYPE = U
NORAD_CAT_ID   = 67340
ELEMENT_SET_NO = 999
REV_AT_EPOCH   = 324
BSTAR          = -.106E-1
MEAN_MOTION_DOT = -.1600078E-1
MEAN_MOTION_DDOT = 0

CCSDS_OMM_VERS = 2.0
CREATION_DATE  = 
ORIGINATOR     = 

OBJECT_NAME    = STARLINK-36453
OBJECT_ID      = 2026-003H
CENTER_NAME    = EARTH
REF_FRAME      = TEME
TIME_SYSTEM    = UTC
MEAN_ELEMENT_THEORY = SGP/SGP4

EPOCH          = 2026-01-22T12:00:01.999296
MEAN_MOTION    = 15.77645278
ECCENTRICITY   = .0000951
INCLINATION    = 42.9986
RA_OF_ASC_NODE = 133.2155
ARG_OF_PERICENTER = 282.5988
MEAN_ANOMALY   = 279.6498

EPHEMERIS_TYPE = 0
CLASSIFICATION_TYPE = U
NORAD_CAT_ID   = 67341
ELEMENT_SET_NO = 999
REV_AT_EPOCH   = 324
BSTAR          = -.10683E-1
MEAN_MOTION_DOT = -.163705E-1
MEAN_MOTION_DDOT = 0

